{"type": "FeatureCollection", "features": [ {"type": "Feature", "properties": {"norad_id": 34792, "name": "COSMOS 2251 DEB", "group": "cosmos-2251-debris", "lat": 56.76521826118987, "lon": 166.80439138087746, "alt_km": 708.7389369835637, "timestamp": "2025-12-27T22:26:48.995719+00:00", "meta": {"OBJECT_NAME": "COSMOS 2251 DEB", "OBJECT_ID": "1993-036AAV", "EPOCH": "2025-12-26T20:28:39.708768", "MEAN_MOTION": 14.56080726, "ECCENTRICITY": 0.0012351, "INCLINATION": 74.0179, "RA_OF_ASC_NODE": 142.9205, "ARG_OF_PERICENTER": 238.0565, "MEAN_ANOMALY": 272.7748, "EPHEMERIS_TYPE": 0, "CLASSIFICATION_TYPE": "U", "NORAD_CAT_ID": 34792, "ELEMENT_SET_NO": 999, "REV_AT_EPOCH": 87855, "BSTAR": 0.0014169, "MEAN_MOTION_DOT": 6.229e-05, "MEAN_MOTION_DDOT": 0}, "tle": {"line1": "1 34792U 93036AAV 25360.85323737  .00006229  00000+0  14169-2 0  9991", "line2": "2 34792  74.0179 142.9205 0012351 238.0565 272.7748 14.56080726878558"}}, "geometry": {"type": "Point", "coordinates": [166.80439138087746, 56.76521826118987]}}, {"type": "Feature", "properties": {"norad_id": 34793, "name": "COSMOS 2251 DEB", "group": "cosmos-2251-debris", "lat": -28.875157128328677, "lon": -146.80913937525202, "alt_km": 741.5792885531264, "timestamp": "2025-12-27T22:26:48.995729+00:00", "meta": {"OBJECT_NAME": "COSMOS 2251 DEB", "OBJECT_ID": "1993-036AAW", "EPOCH": "2025-12-26T21:38:28.912128", "MEAN_MOTION": 14.38666313, "ECCENTRICITY": 0.0050933, "INCLINATION": 74.0014, "RA_OF_ASC_NODE": 224.2033, "ARG_OF_PERICENTER": 14.769, "MEAN_ANOMALY": 4.6796, "EPHEMERIS_TYPE": 0, "CLASSIFICATION_TYPE": "U", "NORAD_CAT_ID": 34793, "ELEMENT_SET_NO": 999, "REV_AT_EPOCH": 87534, "BSTAR": 0.00024861, "MEAN_MOTION_DOT": 7.47e-06, "MEAN_MOTION_DDOT": 0}, "tle": {"line1": "1 34793U 93036AAW 25360.90172352  .00000747  00000+0  24861-3 0  9993", "line2": "2 34793  74.0014 224.2033 0050933  14.7690   4.6796 14.38666313875347"}}, "geometry": {"type": "Point", "coordinates": [-146.80913937525202, -28.875157128328677]}}, {"type": "Feature", "properties": {"norad_id": 34796, "name": "COSMOS 2251 DEB", "group": "cosmos-2251-debris", "lat": -67.50201739482392, "lon": 51.60343324640161, "alt_km": 676.3850107810267, "timestamp": "2025-12-27T22:26:48.995739+00:00", "meta": {"OBJECT_NAME": "COSMOS 2251 DEB", "OBJECT_ID": "1993-036AAZ", "EPOCH": "2025-12-25T13:03:59.133024", "MEAN_MOTION": 14.48745914, "ECCENTRICITY": 0.0100284, "INCLINATION": 74.0282, "RA_OF_ASC_NODE": 192.3362, "ARG_OF_PERICENTER": 291.6358, "MEAN_ANOMALY": 98.4563, "EPHEMERIS_TYPE": 0, "CLASSIFICATION_TYPE": "U", "NORAD_CAT_ID": 34796, "ELEMENT_SET_NO": 999, "REV_AT_EPOCH": 88213, "BSTAR": 0.00055203, "MEAN_MOTION_DOT": 2.189e-05, "MEAN_MOTION_DDOT": 0}, "tle": {"line1": "1 34796U 93036AAZ 25359.54443441  .00002189  00000+0  55203-3 0  9990", "line2": "2 34796  74.0282 192.3362 0100284 291.6358  98.4563 14.48745914882133"}}, "geometry": {"type": "Point", "coordinates": [51.60343324640161, -67.50201739482392]}}, {"type": "Feature", "properties": {"norad_id": 34797, "name": "COSMOS 2251 DEB", "group": "cosmos-2251-debris", "lat": 56.55356698217615, "lon": 97.46053741096141, "alt_km": 769.3283316671759, "timestamp": "2025-12-27T22:26:48.995748+00:00", "meta": {"OBJECT_NAME": "COSMOS 2251 DEB", "OBJECT_ID": "1993-036ABA", "EPOCH": "2025-12-22T12:22:54.757056", "MEAN_MOTION": 14.42950692, "ECCENTRICITY": 0.00710542, "INCLINATION": 73.9783, "RA_OF_ASC_NODE": 81.7691, "ARG_OF_PERICENTER": 193.6898, "MEAN_ANOMALY": 166.2334, "EPHEMERIS_TYPE": 0, "CLASSIFICATION_TYPE": "U", "NORAD_CAT_ID": 34797, "ELEMENT_SET_NO": 999, "REV_AT_EPOCH": 87556, "BSTAR": 0.0021692417, "MEAN_MOTION_DOT": 7.461e-05, "MEAN_MOTION_DDOT": 0}, "tle": {"line1": "1 34797U 93036ABA 25356.51591154  .00007461  00000+0  21692-2 0  9992", "line2": "2 34797  73.9783  81.7691 0071054 193.6898 166.2334 14.42950692875560"}}, "geometry": {"type": "Point", "coordinates": [97.46053741096141, 56.55356698217615]}}, {"type": "Feature", "properties": {"norad_id": 34814, "name": "COSMOS 2251 DEB", "group": "cosmos-2251-debris", "lat": 68.69288343782495, "lon": -14.950300660437213, "alt_km": 773.2905879283198, "timestamp": "2025-12-27T22:26:48.995758+00:00", "meta": {"OBJECT_NAME": "COSMOS 2251 DEB", "OBJECT_ID": "1993-036ABD", "EPOCH": "2025-12-26T21:17:53.689344", "MEAN_MOTION": 14.3695303, "ECCENTRICITY": 0.005524, "INCLINATION": 73.896, "RA_OF_ASC_NODE": 299.2, "ARG_OF_PERICENTER": 185.6833, "MEAN_ANOMALY": 232.3417, "EPHEMERIS_TYPE": 0, "CLASSIFICATION_TYPE": "U", "NORAD_CAT_ID": 34814, "ELEMENT_SET_NO": 999, "REV_AT_EPOCH": 87536, "BSTAR": 0.00081923, "MEAN_MOTION_DOT": 2.443e-05, "MEAN_MOTION_DDOT": 0}, "tle": {"line1": "1 34814U 93036ABD 25360.88742696  .00002443  00000+0  81923-3 0  9995", "line2": "2 34814  73.8960 299.2000 0055240 185.6833 232.3417 14.36953030875362"}}, "geometry": {"type": "Point", "coordinates": [-14.950300660437213, 68.69288343782495]}}, {"type": "Feature", "properties": {"norad_id": 34815, "name": "COSMOS 2251 DEB", "group": "cosmos-2251-debris", "lat": -20.590899917618763, "lon": -154.2098419031045, "alt_km": 618.7831049851256, "timestamp": "2025-12-27T22:26:48.995768+00:00", "meta": {"OBJECT_NAME": "COSMOS 2251 DEB", "OBJECT_ID": "1993-036ABE", "EPOCH": "2025-12-27T07:55:39.589248", "MEAN_MOTION": 14.78473831, "ECCENTRICITY": 0.0058627, "INCLINATION": 74.0443, "RA_OF_ASC_NODE": 213.1483, "ARG_OF_PERICENTER": 279.2109, "MEAN_ANOMALY": 80.2437, "EPHEMERIS_TYPE": 0, "CLASSIFICATION_TYPE": "U", "NORAD_CAT_ID": 34815, "ELEMENT_SET_NO": 999, "REV_AT_EPOCH": 88843, "BSTAR": 0.00079229, "MEAN_MOTION_DOT": 5.919e-05, "MEAN_MOTION_DDOT": 0}, "tle": {"line1": "1 34815U 93036ABE 25361.33031932  .00005919  00000+0  79229-3 0  9998", "line2": "2 34815  74.0443 213.1483 0058627 279.2109  80.2437 14.78473831888436"}}, "geometry": {"type": "Point", "coordinates": [-154.2098419031045, -20.590899917618763]}}, {"type": "Feature", "properties": {"norad_id": 34816, "name": "COSMOS 2251 DEB", "group": "cosmos-2251-debris", "lat": -29.42213409697058, "lon": -52.28885739858261, "alt_km": 806.0933319874857, "timestamp": "2025-12-27T22:26:48.995778+00:00", "meta": {"OBJECT_NAME": "COSMOS 2251 DEB", "OBJECT_ID": "1993-036ABF", "EPOCH": "2025-12-27T02:51:15.609888", "MEAN_MOTION": 13.58367735, "ECCENTRICITY": 0.03728001, "INCLINATION": 73.8876, "RA_OF_ASC_NODE": 119.6608, "ARG_OF_PERICENTER": 181.6545, "MEAN_ANOMALY": 356.2614, "EPHEMERIS_TYPE": 0, "CLASSIFICATION_TYPE": "U", "NORAD_CAT_ID": 34816, "ELEMENT_SET_NO": 999, "REV_AT_EPOCH": 82978, "BSTAR": 0.0017334466, "MEAN_MOTION_DOT": 1.963e-05, "MEAN_MOTION_DDOT": 0}, "tle": {"line1": "1 34816U 93036ABF 25361.11893067  .00001963  00000+0  17334-2 0  9993", "line2": "2 34816  73.8876 119.6608 0372800 181.6545 356.2614 13.58367735829783"}}, "geometry": {"type": "Point", "coordinates": [-52.28885739858261, -29.42213409697058]}}, {"type": "Feature", "properties": {"norad_id": 34818, "name": "COSMOS 2251 DEB", "group": "cosmos-2251-debris", "lat": 28.086156712850567, "lon": 80.21523364673028, "alt_km": 784.2342297120213, "timestamp": "2025-12-27T22:26:48.995788+00:00", "meta": {"OBJECT_NAME": "COSMOS 2251 DEB", "OBJECT_ID": "1993-036ABH", "EPOCH": "2025-12-26T04:41:15.553824", "MEAN_MOTION": 14.36982494, "ECCENTRICITY": 0.00246969, "INCLINATION": 74.0365, "RA_OF_ASC_NODE": 272.1995, "ARG_OF_PERICENTER": 344.861, "MEAN_ANOMALY": 168.1819, "EPHEMERIS_TYPE": 0, "CLASSIFICATION_TYPE": "U", "NORAD_CAT_ID": 34818, "ELEMENT_SET_NO": 999, "REV_AT_EPOCH": 87563, "BSTAR": 0.00018428348, "MEAN_MOTION_DOT": 5.22e-06, "MEAN_MOTION_DDOT": 0}, "tle": {"line1": "1 34818U 93036ABH 25360.19531891  .00000522  00000+0  18428-3 0  9992", "line2": "2 34818  74.0365 272.1995 0024696 344.8610 168.1819 14.36982494875632"}}, "geometry": {"type": "Point", "coordinates": [80.21523364673028, 28.086156712850567]}}, {"type": "Feature", "properties": {"norad_id": 34819, "name": "COSMOS 2251 DEB", "group": "cosmos-2251-debris", "lat": 64.90694766517926, "lon": -104.29132387202114, "alt_km": 674.6307497969729, "timestamp": "2025-12-27T22:26:48.995798+00:00", "meta": {"OBJECT_NAME": "COSMOS 2251 DEB", "OBJECT_ID": "1993-036ABJ", "EPOCH": "2025-12-27T09:05:24.768096", "MEAN_MOTION": 14.6419661, "ECCENTRICITY": 0.001509, "INCLINATION": 74.0182, "RA_OF_ASC_NODE": 114.5128, "ARG_OF_PERICENTER": 210.0036, "MEAN_ANOMALY": 207.3949, "EPHEMERIS_TYPE": 0, "CLASSIFICATION_TYPE": "U", "NORAD_CAT_ID": 34819, "ELEMENT_SET_NO": 999, "REV_AT_EPOCH": 88443, "BSTAR": 0.0018114, "MEAN_MOTION_DOT": 9.534e-05, "MEAN_MOTION_DDOT": 0}, "tle": {"line1": "1 34819U 93036ABJ 25361.37875889  .00009534  00000+0  18114-2 0  9995", "line2": "2 34819  74.0182 114.5128 0015090 210.0036 207.3949 14.64196610884437"}}, "geometry": {"type": "Point", "coordinates": [-104.29132387202114, 64.90694766517926]}}, {"type": "Feature", "properties": {"norad_id": 34823, "name": "COSMOS 2251 DEB", "group": "cosmos-2251-debris", "lat": 17.277571699849666, "lon": 78.6193416353865, "alt_km": 787.4805482614383, "timestamp": "2025-12-27T22:26:48.995808+00:00", "meta": {"OBJECT_NAME": "COSMOS 2251 DEB", "OBJECT_ID": "1993-036ABN", "EPOCH": "2025-12-27T05:51:38.955168", "MEAN_MOTION": 14.55015651, "ECCENTRICITY": 0.015365, "INCLINATION": 74.0413, "RA_OF_ASC_NODE": 74.8209, "ARG_OF_PERICENTER": 155.9615, "MEAN_ANOMALY": 204.8823, "EPHEMERIS_TYPE": 0, "CLASSIFICATION_TYPE": "U", "NORAD_CAT_ID": 34823, "ELEMENT_SET_NO": 999, "REV_AT_EPOCH": 88592, "BSTAR": 0.00054563, "MEAN_MOTION_DOT": 2.724e-05, "MEAN_MOTION_DDOT": 0}, "tle": {"line1": "1 34823U 93036ABN 25361.24420087  .00002724  00000+0  54563-3 0  9995", "line2": "2 34823  74.0413  74.8209 0153650 155.9615 204.8823 14.55015651885925"}}, "geometry": {"type": "Point", "coordinates": [78.6193416353865, 17.277571699849666]}}]}